YAHSAT 1B               
1 38245U 12016A   17345.64396837  .00000120  00000-0  00000-0 0  9991
2 38245   0.0219 336.3931 0001589 307.8971  75.6921  1.00269868 14456
